{
  "type": "FeatureCollection",
  "features": [
    {
      "type": "Feature",
      "properties": {
        "norad_id": 30816,
        "name": "FENGYUN 1C DEB",
        "group": "fengyun-1c-debris",
        "lat": 18.61328772120379,
        "lon": -126.65327370496539,
        "alt_km": 829.5391763285588,
        "timestamp": "2025-12-05T20:43:02.333984+00:00",
        "meta_object_name": "FENGYUN 1C DEB",
        "meta_object_id": "1999-025AVA",
        "meta_epoch": "2025-12-05T05:01:30.847584",
        "meta_mean_motion": 14.17934832,
        "meta_eccentricity": 0.00529998,
        "meta_inclination": 98.9158,
        "meta_ra_of_asc_node": 49.6598,
        "meta_arg_of_pericenter": 77.0818,
        "meta_mean_anomaly": 347.6586,
        "meta_ephemeris_type": 0,
        "meta_classification_type": "U",
        "meta_norad_cat_id": 30816,
        "meta_element_set_no": 999,
        "meta_rev_at_epoch": 96287,
        "meta_bstar": 0.0032740618,
        "meta_mean_motion_dot": 6.751e-05,
        "meta_mean_motion_ddot": 0,
        "tle_line1": "1 30816U 99025AVA 25339.20938481  .00006751  00000+0  32741-2 0  9997",
        "tle_line2": "2 30816  98.9158  49.6598 0052999  77.0818 347.6586 14.17934832962879"
      },
      "geometry": {
        "type": "Point",
        "coordinates": [
          -126.65327370496539,
          18.61328772120379
        ]
      }
    },
    {
      "type": "Feature",
      "properties": {
        "norad_id": 30817,
        "name": "FENGYUN 1C DEB",
        "group": "fengyun-1c-debris",
        "lat": -47.74043258001013,
        "lon": -19.861332369220467,
        "alt_km": 869.6216845642284,
        "timestamp": "2025-12-05T20:43:02.333995+00:00",
        "meta_object_name": "FENGYUN 1C DEB",
        "meta_object_id": "1999-025AVB",
        "meta_epoch": "2025-12-04T22:39:39.192768",
        "meta_mean_motion": 14.0071129,
        "meta_eccentricity": 0.0057346,
        "meta_inclination": 98.7857,
        "meta_ra_of_asc_node": 329.4557,
        "meta_arg_of_pericenter": 266.9768,
        "meta_mean_anomaly": 92.4834,
        "meta_ephemeris_type": 0,
        "meta_classification_type": "U",
        "meta_norad_cat_id": 30817,
        "meta_element_set_no": 999,
        "meta_rev_at_epoch": 95800,
        "meta_bstar": 0.00049777,
        "meta_mean_motion_dot": 7.1e-06,
        "meta_mean_motion_ddot": 0,
        "tle_line1": "1 30817U 99025AVB 25338.94420362  .00000710  00000+0  49777-3 0  9999",
        "tle_line2": "2 30817  98.7857 329.4557 0057346 266.9768  92.4834 14.00711290958006"
      },
      "geometry": {
        "type": "Point",
        "coordinates": [
          -19.861332369220467,
          -47.74043258001013
        ]
      }
    },
    {
      "type": "Feature",
      "properties": {
        "norad_id": 30820,
        "name": "FENGYUN 1C DEB",
        "group": "fengyun-1c-debris",
        "lat": 25.02347934251958,
        "lon": 72.19408204114102,
        "alt_km": 857.4995039328223,
        "timestamp": "2025-12-05T20:43:02.334004+00:00",
        "meta_object_name": "FENGYUN 1C DEB",
        "meta_object_id": "1999-025AVE",
        "meta_epoch": "2025-12-04T12:35:32.066880",
        "meta_mean_motion": 14.2129273,
        "meta_eccentricity": 0.0051958,
        "meta_inclination": 98.6775,
        "meta_ra_of_asc_node": 74.9669,
        "meta_arg_of_pericenter": 210.3836,
        "meta_mean_anomaly": 169.9741,
        "meta_ephemeris_type": 0,
        "meta_classification_type": "U",
        "meta_norad_cat_id": 30820,
        "meta_element_set_no": 999,
        "meta_rev_at_epoch": 96307,
        "meta_bstar": 0.0044849,
        "meta_mean_motion_dot": 9.88e-05,
        "meta_mean_motion_ddot": 0,
        "tle_line1": "1 30820U 99025AVE 25338.52467670  .00009880  00000+0  44849-2 0  9991",
        "tle_line2": "2 30820  98.6775  74.9669 0051958 210.3836 169.9741 14.21292730963072"
      },
      "geometry": {
        "type": "Point",
        "coordinates": [
          72.19408204114102,
          25.02347934251958
        ]
      }
    },
    {
      "type": "Feature",
      "properties": {
        "norad_id": 30821,
        "name": "FENGYUN 1C DEB",
        "group": "fengyun-1c-debris",
        "lat": 79.15429493690475,
        "lon": -1.3079443252116778,
        "alt_km": 759.3616417181893,
        "timestamp": "2025-12-05T20:43:02.334014+00:00",
        "meta_object_name": "FENGYUN 1C DEB",
        "meta_object_id": "1999-025AVF",
        "meta_epoch": "2025-12-01T08:43:29.259840",
        "meta_mean_motion": 14.49523426,
        "meta_eccentricity": 0.00862987,
        "meta_inclination": 99.1021,
        "meta_ra_of_asc_node": 117.0363,
        "meta_arg_of_pericenter": 240.0336,
        "meta_mean_anomaly": 149.0962,
        "meta_ephemeris_type": 0,
        "meta_classification_type": "U",
        "meta_norad_cat_id": 30821,
        "meta_element_set_no": 999,
        "meta_rev_at_epoch": 98624,
        "meta_bstar": 0.0010654422,
        "meta_mean_motion_dot": 4.23e-05,
        "meta_mean_motion_ddot": 0,
        "tle_line1": "1 30821U 99025AVF 25335.36353310  .00004230  00000+0  10654-2 0  9997",
        "tle_line2": "2 30821  99.1021 117.0363 0086298 240.0336 149.0962 14.49523426986240"
      },
      "geometry": {
        "type": "Point",
        "coordinates": [
          -1.3079443252116778,
          79.15429493690475
        ]
      }
    },
    {
      "type": "Feature",
      "properties": {
        "norad_id": 30822,
        "name": "FENGYUN 1C DEB",
        "group": "fengyun-1c-debris",
        "lat": -56.605550679637666,
        "lon": 174.62317981098624,
        "alt_km": 841.3091906310283,
        "timestamp": "2025-12-05T20:43:02.334024+00:00",
        "meta_object_name": "FENGYUN 1C DEB",
        "meta_object_id": "1999-025AVG",
        "meta_epoch": "2025-12-04T13:41:27.522816",
        "meta_mean_motion": 14.11325676,
        "meta_eccentricity": 0.0073273,
        "meta_inclination": 98.7363,
        "meta_ra_of_asc_node": 6.8536,
        "meta_arg_of_pericenter": 308.8142,
        "meta_mean_anomaly": 204.9558,
        "meta_ephemeris_type": 0,
        "meta_classification_type": "U",
        "meta_norad_cat_id": 30822,
        "meta_element_set_no": 999,
        "meta_rev_at_epoch": 96586,
        "meta_bstar": 0.00056239,
        "meta_mean_motion_dot": 9.99e-06,
        "meta_mean_motion_ddot": 0,
        "tle_line1": "1 30822U 99025AVG 25338.57045744  .00000999  00000+0  56239-3 0  9991",
        "tle_line2": "2 30822  98.7363   6.8536 0073273 308.8142 204.9558 14.11325676965862"
      },
      "geometry": {
        "type": "Point",
        "coordinates": [
          174.62317981098624,
          -56.605550679637666
        ]
      }
    },
    {
      "type": "Feature",
      "properties": {
        "norad_id": 30823,
        "name": "FENGYUN 1C DEB",
        "group": "fengyun-1c-debris",
        "lat": -12.681726132054447,
        "lon": -60.85739029338107,
        "alt_km": 886.3734305300177,
        "timestamp": "2025-12-05T20:43:02.334034+00:00",
        "meta_object_name": "FENGYUN 1C DEB",
        "meta_object_id": "1999-025AVH",
        "meta_epoch": "2025-12-02T22:13:04.439712",
        "meta_mean_motion": 14.02530933,
        "meta_eccentricity": 0.01341286,
        "meta_inclination": 98.7611,
        "meta_ra_of_asc_node": 118.3054,
        "meta_arg_of_pericenter": 111.9391,
        "meta_mean_anomaly": 15.7733,
        "meta_ephemeris_type": 0,
        "meta_classification_type": "U",
        "meta_norad_cat_id": 30823,
        "meta_element_set_no": 999,
        "meta_rev_at_epoch": 95896,
        "meta_bstar": 0.00074109072,
        "meta_mean_motion_dot": 1.194e-05,
        "meta_mean_motion_ddot": 0,
        "tle_line1": "1 30823U 99025AVH 25336.92574583  .00001194  00000+0  74109-3 0  9991",
        "tle_line2": "2 30823  98.7611 118.3054 0134128 111.9391  15.7733 14.02530933958969"
      },
      "geometry": {
        "type": "Point",
        "coordinates": [
          -60.85739029338107,
          -12.681726132054447
        ]
      }
    },
    {
      "type": "Feature",
      "properties": {
        "norad_id": 30826,
        "name": "FENGYUN 1C DEB",
        "group": "fengyun-1c-debris",
        "lat": 32.45783846644937,
        "lon": -0.1707581867109668,
        "alt_km": 683.3619031073786,
        "timestamp": "2025-12-05T20:43:02.334044+00:00",
        "meta_object_name": "FENGYUN 1C DEB",
        "meta_object_id": "1999-025AVL",
        "meta_epoch": "2025-12-03T07:17:45.376224",
        "meta_mean_motion": 14.8209274,
        "meta_eccentricity": 0.0146116,
        "meta_inclination": 98.8673,
        "meta_ra_of_asc_node": 171.2968,
        "meta_arg_of_pericenter": 26.6766,
        "meta_mean_anomaly": 152.1532,
        "meta_ephemeris_type": 0,
        "meta_classification_type": "U",
        "meta_norad_cat_id": 30826,
        "meta_element_set_no": 999,
        "meta_rev_at_epoch": 146,
        "meta_bstar": 0.00061573,
        "meta_mean_motion_dot": 5.826e-05,
        "meta_mean_motion_ddot": 0,
        "tle_line1": "1 30826U 99025AVL 25337.30399741  .00005826  00000+0  61573-3 0  9995",
        "tle_line2": "2 30826  98.8673 171.2968 0146116  26.6766 152.1532 14.82092740  1465"
      },
      "geometry": {
        "type": "Point",
        "coordinates": [
          -0.1707581867109668,
          32.45783846644937
        ]
      }
    }
  ]
}